{
  "norad_id": 37763,
  "name": "BEIDOU-2 IGSO-4",
  "history": [
    {
      "epoch": "2026-03-28T15:54:07.127136Z",
      "apogee_km": 36450.04706335867,
      "perigee_km": 35129.5082149362,
      "latitude_deg": -5.5477396117813464,
      "longitude_deg": 97.85891459111717,
      "height_km": 36132.04860884637,
      "semi_major_axis_km": 42167.914639147435,
      "eccentricity": 0.0156581,
      "inclination_deg": 54.5871,
      "raan_deg": 166.404,
      "arg_perigee_deg": 231.4212,
      "mean_anomaly_deg": 120.2889,
      "mean_motion_rev_day": 1.00260433
    }
  ]
}